CCSDS_OMM_VERS = 2.0
CREATION_DATE  = 
ORIGINATOR     = 

OBJECT_NAME    = SL-16 R/B
OBJECT_ID      = 1998-043G
CENTER_NAME    = EARTH
REF_FRAME      = TEME
TIME_SYSTEM    = UTC
MEAN_ELEMENT_THEORY = SGP/SGP4

EPOCH          = 2025-12-06T14:58:24.446784
MEAN_MOTION    = 14.26023213
ECCENTRICITY   = .00088755
INCLINATION    = 98.8115
RA_OF_ASC_NODE = 288.4080
ARG_OF_PERICENTER = 286.5835
MEAN_ANOMALY   = 73.4370

EPHEMERIS_TYPE = 0
CLASSIFICATION_TYPE = U
NORAD_CAT_ID   = 25400
ELEMENT_SET_NO = 999
REV_AT_EPOCH   = 42572
BSTAR          = .85247386E-4
MEAN_MOTION_DOT = .158E-5
MEAN_MOTION_DDOT = 0

CCSDS_OMM_VERS = 2.0
CREATION_DATE  = 
ORIGINATOR     = 

OBJECT_NAME    = SL-16 R/B
OBJECT_ID      = 1998-045B
CENTER_NAME    = EARTH
REF_FRAME      = TEME
TIME_SYSTEM    = UTC
MEAN_ELEMENT_THEORY = SGP/SGP4

EPOCH          = 2025-12-06T13:10:27.469056
MEAN_MOTION    = 14.16175998
ECCENTRICITY   = .00072603
INCLINATION    = 71.0125
RA_OF_ASC_NODE = 17.4462
ARG_OF_PERICENTER = 187.2136
MEAN_ANOMALY   = 172.8884

EPHEMERIS_TYPE = 0
CLASSIFICATION_TYPE = U
NORAD_CAT_ID   = 25407
ELEMENT_SET_NO = 999
REV_AT_EPOCH   = 41391
BSTAR          = .13323329E-4
MEAN_MOTION_DOT = -.21E-6
MEAN_MOTION_DDOT = 0

CCSDS_OMM_VERS = 2.0
CREATION_DATE  = 
ORIGINATOR     = 

OBJECT_NAME    = ISS (ZARYA)
OBJECT_ID      = 1998-067A
CENTER_NAME    = EARTH
REF_FRAME      = TEME
TIME_SYSTEM    = UTC
MEAN_ELEMENT_THEORY = SGP/SGP4

EPOCH          = 2025-12-06T13:01:49.374912
MEAN_MOTION    = 15.49366390
ECCENTRICITY   = .00035502
INCLINATION    = 51.6299
RA_OF_ASC_NODE = 173.1600
ARG_OF_PERICENTER = 211.9909
MEAN_ANOMALY   = 148.0864

EPHEMERIS_TYPE = 0
CLASSIFICATION_TYPE = U
NORAD_CAT_ID   = 25544
ELEMENT_SET_NO = 999
REV_AT_EPOCH   = 54189
BSTAR          = .27332684E-3
MEAN_MOTION_DOT = .14832E-3
MEAN_MOTION_DDOT = 0

CCSDS_OMM_VERS = 2.0
CREATION_DATE  = 
ORIGINATOR     = 

OBJECT_NAME    = CZ-4B R/B
OBJECT_ID      = 1999-025C
CENTER_NAME    = EARTH
REF_FRAME      = TEME
TIME_SYSTEM    = UTC
MEAN_ELEMENT_THEORY = SGP/SGP4

EPOCH          = 2025-12-06T14:55:57.627264
MEAN_MOTION    = 14.18241383
ECCENTRICITY   = .00361514
INCLINATION    = 98.6776
RA_OF_ASC_NODE = 22.0388
ARG_OF_PERICENTER = 252.0923
MEAN_ANOMALY   = 224.2255

EPHEMERIS_TYPE = 0
CLASSIFICATION_TYPE = U
NORAD_CAT_ID   = 25732
ELEMENT_SET_NO = 999
REV_AT_EPOCH   = 37497
BSTAR          = .10330984E-3
MEAN_MOTION_DOT = .17E-5
MEAN_MOTION_DDOT = 0

CCSDS_OMM_VERS = 2.0
CREATION_DATE  = 
ORIGINATOR     = 

OBJECT_NAME    = OKEAN-O
OBJECT_ID      = 1999-039A
CENTER_NAME    = EARTH
REF_FRAME      = TEME
TIME_SYSTEM    = UTC
MEAN_ELEMENT_THEORY = SGP/SGP4

EPOCH          = 2025-12-06T15:18:27.832032
MEAN_MOTION    = 14.80145352
ECCENTRICITY   = .00008053
INCLINATION    = 97.9611
RA_OF_ASC_NODE = 36.3920
ARG_OF_PERICENTER = 85.7137
MEAN_ANOMALY   = 274.4167

EPHEMERIS_TYPE = 0
CLASSIFICATION_TYPE = U
NORAD_CAT_ID   = 25860
ELEMENT_SET_NO = 999
REV_AT_EPOCH   = 42062
BSTAR          = .20460389E-3
MEAN_MOTION_DOT = .1501E-4
MEAN_MOTION_DDOT = 0

CCSDS_OMM_VERS = 2.0
CREATION_DATE  = 
ORIGINATOR     = 

OBJECT_NAME    = SL-16 R/B
OBJECT_ID      = 1999-039B
CENTER_NAME    = EARTH
REF_FRAME      = TEME
TIME_SYSTEM    = UTC
MEAN_ELEMENT_THEORY = SGP/SGP4

EPOCH          = 2025-12-06T15:19:49.640736
MEAN_MOTION    = 14.81573192
ECCENTRICITY   = .00144623
INCLINATION    = 98.0133
RA_OF_ASC_NODE = 34.7893
ARG_OF_PERICENTER = 194.5610
MEAN_ANOMALY   = 165.5188

EPHEMERIS_TYPE = 0
CLASSIFICATION_TYPE = U
NORAD_CAT_ID   = 25861
ELEMENT_SET_NO = 999
REV_AT_EPOCH   = 42308
BSTAR          = .16647505E-3
MEAN_MOTION_DOT = .1255E-4
MEAN_MOTION_DDOT = 0

CCSDS_OMM_VERS = 2.0
CREATION_DATE  = 
ORIGINATOR     = 

OBJECT_NAME    = DELTA 2 R/B
OBJECT_ID      = 1999-041E
CENTER_NAME    = EARTH
REF_FRAME      = TEME
TIME_SYSTEM    = UTC
MEAN_ELEMENT_THEORY = SGP/SGP4

EPOCH          = 2025-12-06T14:58:19.820928
MEAN_MOTION    = 14.11378268
ECCENTRICITY   = .05047773
INCLINATION    = 51.7620
RA_OF_ASC_NODE = 312.8599
ARG_OF_PERICENTER = 73.7412
MEAN_ANOMALY   = 291.8423

EPHEMERIS_TYPE = 0
CLASSIFICATION_TYPE = U
NORAD_CAT_ID   = 25876
ELEMENT_SET_NO = 999
REV_AT_EPOCH   = 34988
BSTAR          = .3799296E-3
MEAN_MOTION_DOT = .2117E-4
MEAN_MOTION_DDOT = 0

CCSDS_OMM_VERS = 2.0
CREATION_DATE  = 
ORIGINATOR     = 

OBJECT_NAME    = HELIOS 1B
OBJECT_ID      = 1999-064A
CENTER_NAME    = EARTH
REF_FRAME      = TEME
TIME_SYSTEM    = UTC
MEAN_ELEMENT_THEORY = SGP/SGP4

EPOCH          = 2025-12-06T14:43:57.424512
MEAN_MOTION    = 14.87244005
ECCENTRICITY   = .00020499
INCLINATION    = 98.1755
RA_OF_ASC_NODE = 235.0978
ARG_OF_PERICENTER = 51.0249
MEAN_ANOMALY   = 309.1149

EPHEMERIS_TYPE = 0
CLASSIFICATION_TYPE = U
NORAD_CAT_ID   = 25977
ELEMENT_SET_NO = 999
REV_AT_EPOCH   = 67142
BSTAR          = .40767979E-3
MEAN_MOTION_DOT = .3615E-4
MEAN_MOTION_DDOT = 0

CCSDS_OMM_VERS = 2.0
CREATION_DATE  = 
ORIGINATOR     = 

OBJECT_NAME    = TERRA
OBJECT_ID      = 1999-068A
CENTER_NAME    = EARTH
REF_FRAME      = TEME
TIME_SYSTEM    = UTC
MEAN_ELEMENT_THEORY = SGP/SGP4

EPOCH          = 2025-12-06T15:33:38.850912
MEAN_MOTION    = 14.60942173
ECCENTRICITY   = .0003497
INCLINATION    = 97.9757
RA_OF_ASC_NODE = 32.5562
ARG_OF_PERICENTER = 110.1193
MEAN_ANOMALY   = 3.2989

EPHEMERIS_TYPE = 0
CLASSIFICATION_TYPE = U
NORAD_CAT_ID   = 25994
ELEMENT_SET_NO = 999
REV_AT_EPOCH   = 38149
BSTAR          = .21554677E-3
MEAN_MOTION_DOT = .1011E-4
MEAN_MOTION_DDOT = 0

CCSDS_OMM_VERS = 2.0
CREATION_DATE  = 
ORIGINATOR     = 

OBJECT_NAME    = SL-16 R/B
OBJECT_ID      = 2000-006B
CENTER_NAME    = EARTH
REF_FRAME      = TEME
TIME_SYSTEM    = UTC
MEAN_ELEMENT_THEORY = SGP/SGP4

EPOCH          = 2025-12-06T14:39:36.328032
MEAN_MOTION    = 14.15809801
ECCENTRICITY   = .00181778
INCLINATION    = 71.0030
RA_OF_ASC_NODE = 293.5439
ARG_OF_PERICENTER = 317.1430
MEAN_ANOMALY   = 42.8275

EPHEMERIS_TYPE = 0
CLASSIFICATION_TYPE = U
NORAD_CAT_ID   = 26070
ELEMENT_SET_NO = 999
REV_AT_EPOCH   = 33538
BSTAR          = .12279799E-3
MEAN_MOTION_DOT = .194E-5
MEAN_MOTION_DDOT = 0

CCSDS_OMM_VERS = 2.0
CREATION_DATE  = 
ORIGINATOR     = 

OBJECT_NAME    = TITAN 4B R/B
OBJECT_ID      = 2000-047B
CENTER_NAME    = EARTH
REF_FRAME      = TEME
TIME_SYSTEM    = UTC
MEAN_ELEMENT_THEORY = SGP/SGP4

EPOCH          = 2025-12-06T12:16:23.822976
MEAN_MOTION    = 15.08710819
ECCENTRICITY   = .00394547
INCLINATION    = 67.9903
RA_OF_ASC_NODE = 302.3459
ARG_OF_PERICENTER = 152.1623
MEAN_ANOMALY   = 208.1649

EPHEMERIS_TYPE = 0
CLASSIFICATION_TYPE = U
NORAD_CAT_ID   = 26474
ELEMENT_SET_NO = 999
REV_AT_EPOCH   = 37885
BSTAR          = .39625968E-3
MEAN_MOTION_DOT = .6213E-4
MEAN_MOTION_DDOT = 0

CCSDS_OMM_VERS = 2.0
CREATION_DATE  = 
ORIGINATOR     = 

OBJECT_NAME    = ENVISAT
OBJECT_ID      = 2002-009A
CENTER_NAME    = EARTH
REF_FRAME      = TEME
TIME_SYSTEM    = UTC
MEAN_ELEMENT_THEORY = SGP/SGP4

EPOCH          = 2025-12-06T16:03:33.585408
MEAN_MOTION    = 14.38995788
ECCENTRICITY   = .00011478
INCLINATION    = 98.3590
RA_OF_ASC_NODE = 291.5639
ARG_OF_PERICENTER = 81.9084
MEAN_ANOMALY   = 91.1319

EPHEMERIS_TYPE = 0
CLASSIFICATION_TYPE = U
NORAD_CAT_ID   = 27386
ELEMENT_SET_NO = 999
REV_AT_EPOCH   = 24579
BSTAR          = .10581281E-3
MEAN_MOTION_DOT = .284E-5
MEAN_MOTION_DDOT = 0

