SL-16 R/B               
1 25400U 98043G   25340.62389406  .00000158  00000+0  85247-4 0  9990
2 25400  98.8115 288.4080 0008875 286.5835  73.4370 14.26023213425728
SL-16 R/B               
1 25407U 98045B   25340.54892904 -.00000021  00000+0  13323-4 0  9998
2 25407  71.0125  17.4462 0007260 187.2136 172.8884 14.16175998413910
ISS (ZARYA)             
1 25544U 98067A   25340.54293258  .00014832  00000+0  27333-3 0  9990
2 25544  51.6299 173.1600 0003550 211.9909 148.0864 15.49366390541890
CZ-4B R/B               
1 25732U 99025C   25340.62219476  .00000170  00000+0  10331-3 0  9993
2 25732  98.6776  22.0388 0036151 252.0923 224.2255 14.18241383374973
OKEAN-O                 
1 25860U 99039A   25340.63782213  .00001501  00000+0  20460-3 0  9998
2 25860  97.9611  36.3920 0000805  85.7137 274.4167 14.80145352420621
SL-16 R/B               
1 25861U 99039B   25340.63876899  .00001255  00000+0  16648-3 0  9992
2 25861  98.0133  34.7893 0014462 194.5610 165.5188 14.81573192423087
DELTA 2 R/B             
1 25876U 99041E   25340.62384052  .00002117  00000+0  37993-3 0  9999
2 25876  51.7620 312.8599 0504777  73.7412 291.8423 14.11378268349884
HELIOS 1B               
1 25977U 99064A   25340.61385908  .00003615  00000+0  40768-3 0  9994
2 25977  98.1755 235.0978 0002049  51.0249 309.1149 14.87244005671429
TERRA                   
1 25994U 99068A   25340.64836633  .00001011  00000+0  21555-3 0  9997
2 25994  97.9757  32.5562 0003497 110.1193   3.2989 14.60942173381490
SL-16 R/B               
1 26070U 00006B   25340.61083713  .00000194  00000+0  12280-3 0  9993
2 26070  71.0030 293.5439 0018177 317.1430  42.8275 14.15809801335383
TITAN 4B R/B            
1 26474U 00047B   25340.51138684  .00006213  00000+0  39626-3 0  9994
2 26474  67.9903 302.3459 0039454 152.1623 208.1649 15.08710819378851
ENVISAT                 
1 27386U 02009A   25340.66913872  .00000284  00000+0  10581-3 0  9994
2 27386  98.3590 291.5639 0001147  81.9084  91.1319 14.38995788245793
